ESEO                    
1 43792U 18099AL  26068.65529582  .00002831  00000+0  20935-3 0  9991
2 43792  97.4113 110.2601 0011063 317.6000  42.4371 15.03914518396849
STARLINK-5717           
1 55618U 23020BB  26068.10759528 -.00008580  00000+0 -62013-3 0  9998
2 55618  43.0055 354.6667 0001516 275.5402  84.5267 15.02578274168984
