[{"OBJECT_NAME":"ESEO","OBJECT_ID":"2018-099AL","EPOCH":"2026-03-09T15:43:37.559712","MEAN_MOTION":15.03914518,"ECCENTRICITY":0.00110626,"INCLINATION":97.4113,"RA_OF_ASC_NODE":110.2601,"ARG_OF_PERICENTER":317.6,"MEAN_ANOMALY":42.4371,"EPHEMERIS_TYPE":0,"CLASSIFICATION_TYPE":"U","NORAD_CAT_ID":43792,"ELEMENT_SET_NO":999,"REV_AT_EPOCH":39684,"BSTAR":0.00020934561,"MEAN_MOTION_DOT":2.831e-5,"MEAN_MOTION_DDOT":0},{"OBJECT_NAME":"STARLINK-5717","OBJECT_ID":"2023-020BB","EPOCH":"2026-03-09T02:34:56.232192","MEAN_MOTION":15.02578274,"ECCENTRICITY":0.00015161,"INCLINATION":43.0055,"RA_OF_ASC_NODE":354.6667,"ARG_OF_PERICENTER":275.5402,"MEAN_ANOMALY":84.5267,"EPHEMERIS_TYPE":0,"CLASSIFICATION_TYPE":"U","NORAD_CAT_ID":55618,"ELEMENT_SET_NO":999,"REV_AT_EPOCH":16898,"BSTAR":-0.00062012965,"MEAN_MOTION_DOT":-8.58e-5,"MEAN_MOTION_DDOT":0}]
